{"type": "FeatureCollection", "features": [ {"type": "Feature", "properties": {"norad_id": 34468, "name": "COSMOS 2251 DEB", "group": "cosmos-2251-debris", "lat": -51.9978476038616, "lon": 87.72791603675894, "alt_km": 706.104935888502, "timestamp": "2025-12-16T23:36:36.592471+00:00", "meta": {"OBJECT_NAME": "COSMOS 2251 DEB", "OBJECT_ID": "1993-036TM", "EPOCH": "2025-12-16T07:16:40.056960", "MEAN_MOTION": 14.4763459, "ECCENTRICITY": 0.00763269, "INCLINATION": 74.0128, "RA_OF_ASC_NODE": 110.5281, "ARG_OF_PERICENTER": 254.719, "MEAN_ANOMALY": 104.5523, "EPHEMERIS_TYPE": 0, "CLASSIFICATION_TYPE": "U", "NORAD_CAT_ID": 34468, "ELEMENT_SET_NO": 999, "REV_AT_EPOCH": 88513, "BSTAR": 0.00033975778, "MEAN_MOTION_DOT": 1.269e-05, "MEAN_MOTION_DDOT": 0}, "tle": {"line1": "1 34468U 93036TM  25350.30324140  .00001269  00000+0  33976-3 0  9996", "line2": "2 34468  74.0128 110.5281 0076326 254.7190 104.5523 14.47634590885137"}}, "geometry": {"type": "Point", "coordinates": [87.72791603675894, -51.9978476038616]}}, {"type": "Feature", "properties": {"norad_id": 34472, "name": "COSMOS 2251 DEB", "group": "cosmos-2251-debris", "lat": -46.36364179217519, "lon": -71.42205717627319, "alt_km": 764.8176047539655, "timestamp": "2025-12-16T23:36:36.592482+00:00", "meta": {"OBJECT_NAME": "COSMOS 2251 DEB", "OBJECT_ID": "1993-036TR", "EPOCH": "2025-12-15T16:42:06.945408", "MEAN_MOTION": 13.70333959, "ECCENTRICITY": 0.03278684, "INCLINATION": 74.0841, "RA_OF_ASC_NODE": 93.2828, "ARG_OF_PERICENTER": 223.6385, "MEAN_ANOMALY": 133.8382, "EPHEMERIS_TYPE": 0, "CLASSIFICATION_TYPE": "U", "NORAD_CAT_ID": 34472, "ELEMENT_SET_NO": 999, "REV_AT_EPOCH": 83767, "BSTAR": 0.00064255425, "MEAN_MOTION_DOT": 8.06e-06, "MEAN_MOTION_DDOT": 0}, "tle": {"line1": "1 34472U 93036TR  25349.69591372  .00000806  00000+0  64255-3 0  9994", "line2": "2 34472  74.0841  93.2828 0327868 223.6385 133.8382 13.70333959837673"}}, "geometry": {"type": "Point", "coordinates": [-71.42205717627319, -46.36364179217519]}}, {"type": "Feature", "properties": {"norad_id": 34474, "name": "COSMOS 2251 DEB", "group": "cosmos-2251-debris", "lat": -13.548135274047592, "lon": 142.71358245975662, "alt_km": 1012.7922459213087, "timestamp": "2025-12-16T23:36:36.592492+00:00", "meta": {"OBJECT_NAME": "COSMOS 2251 DEB", "OBJECT_ID": "1993-036TT", "EPOCH": "2025-12-16T07:55:12.381024", "MEAN_MOTION": 14.06438714, "ECCENTRICITY": 0.01986525, "INCLINATION": 74.0773, "RA_OF_ASC_NODE": 319.9101, "ARG_OF_PERICENTER": 32.8501, "MEAN_ANOMALY": 91.6701, "EPHEMERIS_TYPE": 0, "CLASSIFICATION_TYPE": "U", "NORAD_CAT_ID": 34474, "ELEMENT_SET_NO": 999, "REV_AT_EPOCH": 85559, "BSTAR": 0.0016437515, "MEAN_MOTION_DOT": 3.225e-05, "MEAN_MOTION_DDOT": 0}, "tle": {"line1": "1 34474U 93036TT  25350.33000441  .00003225  00000+0  16438-2 0  9998", "line2": "2 34474  74.0773 319.9101 0198652  32.8501  91.6701 14.06438714855590"}}, "geometry": {"type": "Point", "coordinates": [142.71358245975662, -13.548135274047592]}}, {"type": "Feature", "properties": {"norad_id": 34476, "name": "COSMOS 2251 DEB", "group": "cosmos-2251-debris", "lat": 28.010654543815225, "lon": -113.4228019626062, "alt_km": 1140.7834890215136, "timestamp": "2025-12-16T23:36:36.592502+00:00", "meta": {"OBJECT_NAME": "COSMOS 2251 DEB", "OBJECT_ID": "1993-036TV", "EPOCH": "2025-12-16T05:29:06.529056", "MEAN_MOTION": 13.82064795, "ECCENTRICITY": 0.03204065, "INCLINATION": 74.0076, "RA_OF_ASC_NODE": 76.6243, "ARG_OF_PERICENTER": 295.467, "MEAN_ANOMALY": 61.3625, "EPHEMERIS_TYPE": 0, "CLASSIFICATION_TYPE": "U", "NORAD_CAT_ID": 34476, "ELEMENT_SET_NO": 999, "REV_AT_EPOCH": 83686, "BSTAR": 0.0025941384, "MEAN_MOTION_DOT": 4.105e-05, "MEAN_MOTION_DDOT": 0}, "tle": {"line1": "1 34476U 93036TV  25350.22854779  .00004105  00000+0  25941-2 0  9996", "line2": "2 34476  74.0076  76.6243 0320406 295.4670  61.3625 13.82064795836865"}}, "geometry": {"type": "Point", "coordinates": [-113.4228019626062, 28.010654543815225]}}, {"type": "Feature", "properties": {"norad_id": 34477, "name": "COSMOS 2251 DEB", "group": "cosmos-2251-debris", "lat": 65.3625259567675, "lon": -157.3767482599402, "alt_km": 737.2862261814034, "timestamp": "2025-12-16T23:36:36.592512+00:00", "meta": {"OBJECT_NAME": "COSMOS 2251 DEB", "OBJECT_ID": "1993-036TW", "EPOCH": "2025-12-16T05:07:14.305728", "MEAN_MOTION": 14.56889718, "ECCENTRICITY": 0.00768799, "INCLINATION": 73.9794, "RA_OF_ASC_NODE": 62.882, "ARG_OF_PERICENTER": 249.395, "MEAN_ANOMALY": 141.1791, "EPHEMERIS_TYPE": 0, "CLASSIFICATION_TYPE": "U", "NORAD_CAT_ID": 34477, "ELEMENT_SET_NO": 999, "REV_AT_EPOCH": 88676, "BSTAR": 0.00056722095, "MEAN_MOTION_DOT": 2.617e-05, "MEAN_MOTION_DDOT": 0}, "tle": {"line1": "1 34477U 93036TW  25350.21336002  .00002617  00000+0  56722-3 0  9998", "line2": "2 34477  73.9794  62.8820 0076879 249.3950 141.1791 14.56889718886767"}}, "geometry": {"type": "Point", "coordinates": [-157.3767482599402, 65.3625259567675]}}, {"type": "Feature", "properties": {"norad_id": 34478, "name": "COSMOS 2251 DEB", "group": "cosmos-2251-debris", "lat": 47.94435347482967, "lon": 16.644530334446134, "alt_km": 560.0446117553565, "timestamp": "2025-12-16T23:36:36.592522+00:00", "meta": {"OBJECT_NAME": "COSMOS 2251 DEB", "OBJECT_ID": "1993-036TX", "EPOCH": "2025-12-16T01:23:47.687712", "MEAN_MOTION": 15.08279083, "ECCENTRICITY": 0.00345881, "INCLINATION": 74.0413, "RA_OF_ASC_NODE": 0.0551, "ARG_OF_PERICENTER": 220.4446, "MEAN_ANOMALY": 206.6919, "EPHEMERIS_TYPE": 0, "CLASSIFICATION_TYPE": "U", "NORAD_CAT_ID": 34478, "ELEMENT_SET_NO": 999, "REV_AT_EPOCH": 89023, "BSTAR": 0.001949162, "MEAN_MOTION_DOT": 0.00030733, "MEAN_MOTION_DDOT": 0}, "tle": {"line1": "1 34478U 93036TX  25350.05819083  .00030733  00000+0  19492-2 0  9998", "line2": "2 34478  74.0413   0.0551 0034588 220.4446 206.6919 15.08279083890236"}}, "geometry": {"type": "Point", "coordinates": [16.644530334446134, 47.94435347482967]}}, {"type": "Feature", "properties": {"norad_id": 34481, "name": "COSMOS 2251 DEB", "group": "cosmos-2251-debris", "lat": -62.90679141747356, "lon": 11.516889645056727, "alt_km": 774.8567817417534, "timestamp": "2025-12-16T23:36:36.592532+00:00", "meta": {"OBJECT_NAME": "COSMOS 2251 DEB", "OBJECT_ID": "1993-036UA", "EPOCH": "2025-12-16T03:57:25.765056", "MEAN_MOTION": 14.32564335, "ECCENTRICITY": 0.00706179, "INCLINATION": 73.9808, "RA_OF_ASC_NODE": 47.1818, "ARG_OF_PERICENTER": 220.9032, "MEAN_ANOMALY": 169.063, "EPHEMERIS_TYPE": 0, "CLASSIFICATION_TYPE": "U", "NORAD_CAT_ID": 34481, "ELEMENT_SET_NO": 999, "REV_AT_EPOCH": 87498, "BSTAR": 0.00049582531, "MEAN_MOTION_DOT": 1.357e-05, "MEAN_MOTION_DDOT": 0}, "tle": {"line1": "1 34481U 93036UA  25350.16488154  .00001357  00000+0  49583-3 0  9990", "line2": "2 34481  73.9808  47.1818 0070617 220.9032 169.0630 14.32564335874982"}}, "geometry": {"type": "Point", "coordinates": [11.516889645056727, -62.90679141747356]}}, {"type": "Feature", "properties": {"norad_id": 34482, "name": "COSMOS 2251 DEB", "group": "cosmos-2251-debris", "lat": -54.84489249266528, "lon": -168.60711171095224, "alt_km": 642.0504420123616, "timestamp": "2025-12-16T23:36:36.592543+00:00", "meta": {"OBJECT_NAME": "COSMOS 2251 DEB", "OBJECT_ID": "1993-036UB", "EPOCH": "2025-12-16T01:41:20.577120", "MEAN_MOTION": 14.69254988, "ECCENTRICITY": 0.00447708, "INCLINATION": 74.0368, "RA_OF_ASC_NODE": 217.1428, "ARG_OF_PERICENTER": 276.49, "MEAN_ANOMALY": 235.9098, "EPHEMERIS_TYPE": 0, "CLASSIFICATION_TYPE": "U", "NORAD_CAT_ID": 34482, "ELEMENT_SET_NO": 999, "REV_AT_EPOCH": 88236, "BSTAR": 0.0011662976, "MEAN_MOTION_DOT": 6.957e-05, "MEAN_MOTION_DDOT": 0}, "tle": {"line1": "1 34482U 93036UB  25350.07037705  .00006957  00000+0  11663-2 0  9991", "line2": "2 34482  74.0368 217.1428 0044770 276.4900 235.9098 14.69254988882365"}}, "geometry": {"type": "Point", "coordinates": [-168.60711171095224, -54.84489249266528]}}, {"type": "Feature", "properties": {"norad_id": 34544, "name": "COSMOS 2251 DEB", "group": "cosmos-2251-debris", "lat": -55.86536460104262, "lon": 42.3487836746038, "alt_km": 784.8928058500433, "timestamp": "2025-12-16T23:36:36.592553+00:00", "meta": {"OBJECT_NAME": "COSMOS 2251 DEB", "OBJECT_ID": "1993-036UE", "EPOCH": "2025-12-16T00:10:41.787840", "MEAN_MOTION": 13.54665377, "ECCENTRICITY": 0.03839901, "INCLINATION": 73.9139, "RA_OF_ASC_NODE": 198.7387, "ARG_OF_PERICENTER": 226.5839, "MEAN_ANOMALY": 292.1636, "EPHEMERIS_TYPE": 0, "CLASSIFICATION_TYPE": "U", "NORAD_CAT_ID": 34544, "ELEMENT_SET_NO": 999, "REV_AT_EPOCH": 82926, "BSTAR": 0.00033658285, "MEAN_MOTION_DOT": 3.46e-06, "MEAN_MOTION_DDOT": 0}, "tle": {"line1": "1 34544U 93036UE  25350.00742810  .00000346  00000+0  33658-3 0  9998", "line2": "2 34544  73.9139 198.7387 0383990 226.5839 292.1636 13.54665377829267"}}, "geometry": {"type": "Point", "coordinates": [42.3487836746038, -55.86536460104262]}}, {"type": "Feature", "properties": {"norad_id": 34546, "name": "COSMOS 2251 DEB", "group": "cosmos-2251-debris", "lat": 44.58006368874299, "lon": 44.883216229488696, "alt_km": 752.0997819048389, "timestamp": "2025-12-16T23:36:36.592563+00:00", "meta": {"OBJECT_NAME": "COSMOS 2251 DEB", "OBJECT_ID": "1993-036UG", "EPOCH": "2025-12-15T19:03:23.613120", "MEAN_MOTION": 14.45426324, "ECCENTRICITY": 0.00219695, "INCLINATION": 74.0311, "RA_OF_ASC_NODE": 243.4909, "ARG_OF_PERICENTER": 316.9861, "MEAN_ANOMALY": 107.7206, "EPHEMERIS_TYPE": 0, "CLASSIFICATION_TYPE": "U", "NORAD_CAT_ID": 34546, "ELEMENT_SET_NO": 999, "REV_AT_EPOCH": 88070, "BSTAR": 0.00046579609, "MEAN_MOTION_DOT": 1.618e-05, "MEAN_MOTION_DDOT": 0}, "tle": {"line1": "1 34546U 93036UG  25349.79402330  .00001618  00000+0  46580-3 0  9995", "line2": "2 34546  74.0311 243.4909 0021969 316.9861 107.7206 14.45426324880703"}}, "geometry": {"type": "Point", "coordinates": [44.883216229488696, 44.58006368874299]}}]}